{
    "links": {
        "self": "http://www.neowsapp.com/rest/v1/neo/3802585?api_key=iIulBulltgU6a56xZRHN4H3l9WmuAYTsLGpBGhQ2"
    },
    "id": "3802585",
    "neo_reference_id": "3802585",
    "name": "(2018 GG4)",
    "designation": "2018 GG4",
    "nasa_jpl_url": "http://ssd.jpl.nasa.gov/sbdb.cgi?sstr=3802585",
    "absolute_magnitude_h": 26.2,
    "estimated_diameter": {
        "kilometers": {
            "estimated_diameter_min": 0.0152951935,
            "estimated_diameter_max": 0.0342010925
        },
        "meters": {
            "estimated_diameter_min": 15.2951935344,
            "estimated_diameter_max": 34.201092472
        },
        "miles": {
            "estimated_diameter_min": 0.0095039897,
            "estimated_diameter_max": 0.021251567
        },
        "feet": {
            "estimated_diameter_min": 50.1810827555,
            "estimated_diameter_max": 112.2083122258
        }
    },
    "is_potentially_hazardous_asteroid": false,
    "close_approach_data": [
        {
            "close_approach_date": "2018-04-23",
            "close_approach_date_full": "2018-Apr-23 16:28",
            "epoch_date_close_approach": 1524500880000,
            "relative_velocity": {
                "kilometers_per_second": "14.9322396197",
                "kilometers_per_hour": "53756.0626310168",
                "miles_per_hour": "33401.9268053671"
            },
            "miss_distance": {
                "astronomical": "0.0249516679",
                "lunar": "9.7061988131",
                "kilometers": "3732716.370787373",
                "miles": "2319402.4006888274"
            },
            "orbiting_body": "Earth"
        }
    ],
    "orbital_data": {
        "orbit_id": "7",
        "orbit_determination_date": "2018-04-26 08:15:29",
        "first_observation_date": "2018-04-13",
        "last_observation_date": "2018-04-24",
        "data_arc_in_days": 11,
        "observations_used": 34,
        "orbit_uncertainty": "8",
        "minimum_orbit_intersection": ".00830503",
        "jupiter_tisserand_invariant": "3.108",
        "epoch_osculation": "2458228.5",
        "eccentricity": ".6546639814235982",
        "semi_major_axis": "2.527464224256042",
        "inclination": "5.23265541699298",
        "ascending_node_longitude": "30.67563451262583",
        "orbital_period": "1467.661670408973",
        "perihelion_distance": ".8728244322988756",
        "perihelion_argument": "233.6681214983887",
        "aphelion_distance": "4.182104016213209",
        "perihelion_time": "2458267.797084213085",
        "mean_anomaly": "350.3608913403261",
        "mean_motion": ".2452881391252002",
        "equinox": "J2000",
        "orbit_class": {
            "orbit_class_type": "APO",
            "orbit_class_description": "Near-Earth asteroid orbits which cross the Earth’s orbit similar to that of 1862 Apollo",
            "orbit_class_range": "a (semi-major axis) > 1.0 AU; q (perihelion) < 1.017 AU"
        }
    },
    "is_sentry_object": false
}